KUIPER-00165            
1 65778U 25217S   26028.81489369  .00005490  00000+0  74852-3 0  9992
2 65778  51.8978 211.9261 0000583  62.4658 297.6364 14.79937689 19079
KUIPER-00166            
1 65779U 25217T   26028.91668981 -.00974382  00000+0 -94993-1 0  9996
2 65779  51.8912 199.6659 0001909 247.6501  81.4675 14.94916309  5834
KUIPER-00167            
1 65780U 25217U   26028.93921012  .00004480  00000+0  61549-3 0  9991
2 65780  51.8943 221.3563 0000605 106.2456 253.8573 14.79986787 18957
KUIPER-00168            
1 65781U 25217V   26028.91668981  .00031134  00000+0  38236-2 0  9995
2 65781  51.8983 204.0407 0001269  30.0877  76.1111 14.82794348  5027
KUIPER-00169            
1 65782U 25217W   26028.75005876 -.00000015  00000+0  26977-4 0  9992
2 65782  51.8973 209.7104 0000497 119.0664 241.0348 14.79948741 19100
KUIPER-00170            
1 65783U 25217X   26028.87984113  .00002792  00000+0  39605-3 0  9990
2 65783  51.8963 214.1334 0000582 122.4205 237.6814 14.79823768 19053
KUIPER-00171            
1 65784U 25217Y   26028.94643566  .00601307  17244-3  11204-2 0  9996
2 65784  51.8432 173.1355 0005290 226.6320 133.4253 16.00423860 19615
KUIPER-00172            
1 65785U 25217Z   26028.96561422 -.00360698  00000+0 -18288-1 0  9992
2 65785  51.8783 200.7748 0007732 192.7248 167.3536 15.18127906 19242
KUIPER-00173            
1 65786U 25217AA  26028.90864222  .00005075  00000+0  65552-3 0  9992
2 65786  51.9001 208.9065 0001052 111.3223 248.7853 14.82368847 19122
KUIPER-00174            
1 65787U 25217AB  26028.91668981  .00031927  00000+0  38966-2 0  9991
2 65787  51.9012 204.0672 0001556 134.1531 145.9548 14.83041416  5686
KUIPER-00176            
1 65788U 25217AC  26028.70563588  .00005031  00000+0  68837-3 0  9994
2 65788  51.8979 219.9127 0000945 140.6414 219.4617 14.79935388 18954
KUIPER-00101            
1 65947U 25228A   26028.78516584  .00006673  00000+0  90368-3 0  9992
2 65947  51.8965 177.0429 0000578 111.3795 248.7229 14.79923870 17321
KUIPER-00113            
1 65948U 25228B   26028.68922727  .00005946  00000+0  80856-3 0  9995
2 65948  51.8957 172.4828 0000647  80.6807 279.4228 14.79917202 17371
KUIPER-00117            
1 65949U 25228C   26028.78790628  .00007869  00000+0  10613-2 0  9999
2 65949  51.8954 174.5509 0000262 167.3781 192.7188 14.79879060 17354
KUIPER-00121            
1 65950U 25228D   26028.75950752  .00006290  00000+0  85272-3 0  9995
2 65950  51.8980 169.6647 0000969 101.7112 258.3959 14.79964820 17429
KUIPER-00122            
1 65951U 25228E   26028.81617806  .00007246  00000+0  97833-3 0  9991
2 65951  51.8973 179.3956 0000529 165.9060 194.1917 14.79939949 17299
KUIPER-00123            
1 65952U 25228F   26028.71491702  .00006469  00000+0  87672-3 0  9992
2 65952  51.8963 179.8668 0000426  78.0073 282.0937 14.79930715 17277
KUIPER-00124            
1 65953U 25228G   26028.58794787  .00013349  00000+0  17768-2 0  9990
2 65953  51.8959 172.9150 0000913  67.0359 293.0700 14.79926085 17364
KUIPER-00125            
1 65954U 25228H   26028.91668981 -.00007017  00000+0 -66879-3 0  9999
2 65954  51.8959 156.9193 0001997 167.8335 188.3270 14.91581729  5608
KUIPER-00126            
1 65955U 25228J   26028.81889060  .00005764  00000+0  78387-3 0  9994
2 65955  51.8977 176.9154 0000449  85.9028 274.1986 14.79962234 17328
KUIPER-00127            
1 65956U 25228K   26028.69584391  .00008873  00000+0  75794-3 0  9993
2 65956  51.8941 170.0774 0005009 221.2365 138.8227 14.98318093 17412
KUIPER-00128            
1 65957U 25228L   26028.59059234  .00000899  00000+0  14682-3 0  9995
2 65957  51.8993 170.4336 0001378  73.5344 286.5770 14.79961575 17397
KUIPER-00129            
1 65958U 25228M   26028.89997216 -.00013890  00000+0 -17952-2 0  9999
2 65958  51.8985 164.0487 0001582 144.2742 215.8326 14.79966484 17510
KUIPER-00130            
1 65959U 25228N   26028.79587598 -.00002446  00000+0 -29192-3 0  9992
2 65959  51.9015 167.0096 0000703  67.6450 292.4587 14.79943267  7752
KUIPER-00134            
1 65960U 25228P   26028.68610367  .00051238  00000+0  13860-2 0  9998
2 65960  51.8749 153.9477 0002691 191.1306 168.9622 15.37199592 17639
KUIPER-00135            
1 65961U 25228Q   26028.69461301  .00001680  00000+0  24934-3 0  9993
2 65961  51.9018 167.5180 0000184 105.0676 255.0307 14.79930468 17448
KUIPER-00136            
1 65962U 25228R   26028.91668981  .00003186  00000+0  44660-3 0  9993
2 65962  51.8983 164.0214 0000429 278.5500 350.4917 14.79948446  5497
KUIPER-00137            
1 65963U 25228S   26028.66890864  .00005181  00000+0  64771-3 0  9995
2 65963  51.9033 162.6005 0002425 205.9376 154.1467 14.83705154 17517
KUIPER-00138            
1 65964U 25228T   26028.91668981 -.00409943  00000+0 -49654-1 0  9994
2 65964  51.9265 159.1551 0008179 193.6851 134.6872 14.85283548  5010
KUIPER-00140            
1 65965U 25228U   26028.91668981 -.00014919  00000+0 -18302-2 0  9997
2 65965  51.8975 161.5955 0000620 116.7407 297.3960 14.82191277  5883
KUIPER-00141            
1 65966U 25228V   26028.91668981 -.01597495  00000+0 -16052+0 0  9991
2 65966  51.8961 157.1256 0002439 311.6326 186.7163 14.94265340  4162
KUIPER-00146            
1 65967U 25228W   26028.91668981 -.00002053  00000+0 -21435-3 0  9997
2 65967  51.8996 159.2268 0002243 259.5855 258.1222 14.84481094  5905
KUIPER-00149            
1 65968U 25228X   26028.91668981 -.01532377  00000+0 -11807+0 0  9994
2 65968  51.8917 155.2148 0002255 165.2173 310.7237 15.04793135  4546
KUIPER-00154            
1 65969U 25228Y   26028.91668981 -.00826830  00000+0 -48660-1 0  9993
2 65969  51.8893 153.9649 0006033 179.7140 189.1256 15.13639397  5306
KUIPER-00157            
1 65970U 25228Z   26028.91668981 -.00973007  00000+0 -74587-1 0  9991
2 65970  51.9078 155.5008 0002178 226.1255  28.6941 15.04072360  5939
KUIPER-00144            
1 67133U 25301A   26028.94308886  .00043146  00000+0  11804-2 0  9998
2 67133  51.8686 257.3543 0006618 233.0620 126.9761 15.36908357  7626
KUIPER-00164            
1 67134U 25301B   26028.92664285  .00040145  00000+0  10855-2 0  9996
2 67134  51.8696 257.2540 0002779 216.7196 143.3601 15.37321642  7807
KUIPER-00175            
1 67135U 25301C   26027.67731737  .00040920  00000+0  10919-2 0  9997
2 67135  51.8699 263.1330 0002976 139.6275 220.4933 15.37721159  7503
KUIPER-00179            
1 67136U 25301D   26028.92340186  .00046503  00000+0  12577-2 0  9996
2 67136  51.8707 257.2344 0002412 190.1304 169.9634 15.37247310  7803
KUIPER-00181            
1 67137U 25301E   26028.91668981 -.00807433  00000+0 -33021-1 0  9997
2 67137  51.8698 258.1311 0012467 262.5626 323.5424 15.26317645  5618
KUIPER-00183            
1 67138U 25301F   26028.91585689  .00059313  00000+0  16762-2 0  9999
2 67138  51.8628 257.8790 0012857 258.3543 101.6000 15.35697542  7785
KUIPER-00184            
1 67139U 25301G   26028.84166653  .00042568  00000+0  12003-2 0  9996
2 67139  51.8633 258.1401 0010590 255.6724 104.3086 15.35941779  7887
KUIPER-00186            
1 67140U 25301H   26028.91668981 -.01232814  00000+0 -51681-1 0  9999
2 67140  51.8725 258.0183 0006703 247.4838  72.3455 15.25850639  5440
KUIPER-00187            
1 67141U 25301J   26028.91668981 -.00996269  00000+0 -63145-1 0  9998
2 67141  51.8870 258.9040 0008162 260.7024 279.3220 15.11491309  5202
KUIPER-00188            
1 67142U 25301K   26028.89135510  .00044299  00000+0  12276-2 0  9998
2 67142  51.8687 257.7487 0008963 249.7933 110.2090 15.36479879  7616
KUIPER-00191            
1 67143U 25301L   26028.88514477  .00043678  00000+0  12360-2 0  9995
2 67143  51.8670 257.7046 0006858 254.1734 105.8496 15.35849935  7646
KUIPER-00196            
1 67144U 25301M   26028.92933340  .00061428  00000+0  16558-2 0  9991
2 67144  51.8694 257.2719 0003394 201.7632 158.3211 15.37226686  7622
KUIPER-00204            
1 67145U 25301N   26028.82941378  .00025253  00000+0  10103-2 0  9997
2 67145  51.8863 259.5078 0004148 178.7455 181.3537 15.24922334  7691
KUIPER-00210            
1 67146U 25301P   26028.91424128  .00063815  00000+0  18060-2 0  9993
2 67146  51.8588 257.8660 0011757 268.0853  91.8786 15.35632518  7788
KUIPER-00221            
1 67147U 25301Q   26028.91668981 -.01074651  00000+0 -64562-1 0  9991
2 67147  51.8908 258.8042 0006572 211.5376  98.5892 15.13164398  5357
KUIPER-00232            
1 67148U 25301R   26028.91329826  .00054266  00000+0  14478-2 0  9993
2 67148  51.8747 257.1667 0002993 156.3536 203.7589 15.37599431  7622
KUIPER-00241            
1 67149U 25301S   26028.91668981 -.00939746  00000+0 -32421-1 0  9996
2 67149  51.8740 257.3607 0002275 225.5015  55.2654 15.32340126  5436
KUIPER-00245            
1 67150U 25301T   26028.91668981 -.00794675  00000+0 -62920-1 0  9995
2 67150  51.9102 260.3288 0009795 257.5817 280.2527 15.02690369  5779
KUIPER-00246            
1 67151U 25301U   26028.93000178  .00049544  00000+0  13335-2 0  9999
2 67151  51.8704 257.2756 0005030 227.1374 132.9191 15.37361014  7649
KUIPER-00247            
1 67152U 25301V   26028.92247731  .00028080  00000+0  81560-3 0  9995
2 67152  51.8613 257.9290 0011800 269.8901  90.0732 15.35204905  7615
KUIPER-00248            
1 67153U 25301W   26028.83853886  .00041537  00000+0  11790-2 0  9999
2 67153  51.8678 258.1362 0010304 248.6405 111.3482 15.35747733  7779
KUIPER-00249            
1 67154U 25301X   26028.89256033  .00044962  00000+0  12433-2 0  9997
2 67154  51.8637 257.7416 0009667 250.3096 109.6847 15.36533293  7619
KUIPER-00250            
1 67155U 25301Y   26028.94259480  .00032658  00000+0  89105-3 0  9993
2 67155  51.8703 257.3535 0007448 241.4111 118.6127 15.37119326  7659
KUIPER-00251            
1 67156U 25301Z   26028.89929687  .00053826  00000+0  15029-2 0  9994
2 67156  51.8658 257.7912 0010468 248.4987 111.4883 15.36144619  7805
